start=new Date('2021-09-27T00:00:00.000Z').valueOf();
sats=[{"LAUNCH_DATE":"2021-04-29","REF_FRAME":"TEME","MEAN_ELEMENT_THEORY":"SGP4","MEAN_MOTION":"15.06398235","MEAN_MOTION_DDOT":"0.0000000000000","ARG_OF_PERICENTER":"68.7030","RA_OF_ASC_NODE":"177.6255","APOAPSIS":"548.586","FILE":"3129315","SITE":"AFETR","GP_ID":"185554746","REV_AT_EPOCH":"2393","OBJECT_TYPE":"PAYLOAD","SEMIMAJOR_AXIS":"6925.354","DECAY_DATE":null,"PERIAPSIS":"545.852","ECCENTRICITY":"0.00019740","TIME_SYSTEM":"UTC","OBJECT_NAME":"STARLINK-2544","BSTAR":"-0.00010089000000","OBJECT_ID":"2021-036X","CENTER_NAME":"EARTH","RCS_SIZE":"LARGE","COUNTRY_CODE":"US","MEAN_ANOMALY":"291.4170","INCLINATION":"53.0568","PERIOD":"95.592","EPHEMERIS_TYPE":"0","TLE_LINE2":"2 48297  53.0568 177.6255 0001974  68.7030 291.4170 15.06398235 23930","CLASSIFICATION_TYPE":"U","NORAD_CAT_ID":"48297","EPOCH":"2021-09-26T10:41:54.328416","TLE_LINE1":"1 48297U 21036X   21269.44576769 -.00001784  00000-0 -10089-3 0  9993","MEAN_MOTION_DOT":"-0.00001784","ELEMENT_SET_NO":"999"},{"MEAN_MOTION_DDOT":"0.0000000000000","MEAN_ELEMENT_THEORY":"SGP4","MEAN_MOTION":"15.06399539","REF_FRAME":"TEME","LAUNCH_DATE":"2021-04-29","ARG_OF_PERICENTER":"72.1150","OBJECT_NAME":"STARLINK-2559","TIME_SYSTEM":"UTC","ECCENTRICITY":"0.00020450","PERIAPSIS":"545.799","OBJECT_TYPE":"PAYLOAD","SEMIMAJOR_AXIS":"6925.350","DECAY_DATE":null,"GP_ID":"185554267","REV_AT_EPOCH":"2393","SITE":"AFETR","FILE":"3129316","RA_OF_ASC_NODE":"177.6396","APOAPSIS":"548.631","MEAN_MOTION_DOT":"-0.00001523","ELEMENT_SET_NO":"999","TLE_LINE1":"1 48298U 21036Y   21269.44208501 -.00001523  00000-0 -83357-4 0  9990","NORAD_CAT_ID":"48298","EPOCH":"2021-09-26T10:36:36.144864","PERIOD":"95.592","CLASSIFICATION_TYPE":"U","TLE_LINE2":"2 48298  53.0563 177.6396 0002045  72.1150 288.0062 15.06399539 23934","EPHEMERIS_TYPE":"0","INCLINATION":"53.0563","CENTER_NAME":"EARTH","RCS_SIZE":"LARGE","COUNTRY_CODE":"US","MEAN_ANOMALY":"288.0062","OBJECT_ID":"2021-036Y","BSTAR":"-0.00008335700000"},{"INCLINATION":"53.0567","RCS_SIZE":"LARGE","CENTER_NAME":"EARTH","COUNTRY_CODE":"US","MEAN_ANOMALY":"285.9958","BSTAR":"0.00002715500000","OBJECT_ID":"2021-036Z","MEAN_MOTION_DOT":"0.00000123","ELEMENT_SET_NO":"999","TLE_LINE1":"1 48299U 21036Z   21269.43839422  .00000123  00000-0  27155-4 0  9999","NORAD_CAT_ID":"48299","EPOCH":"2021-09-26T10:31:17.260608","PERIOD":"95.592","TLE_LINE2":"2 48299  53.0567 177.6368 0002082  74.1261 285.9958 15.06395357 23938","CLASSIFICATION_TYPE":"U","EPHEMERIS_TYPE":"0","GP_ID":"185555243","REV_AT_EPOCH":"2393","SITE":"AFETR","FILE":"3129352","RA_OF_ASC_NODE":"177.6368","APOAPSIS":"548.670","TIME_SYSTEM":"UTC","OBJECT_NAME":"STARLINK-2557","ECCENTRICITY":"0.00020820","PERIAPSIS":"545.786","OBJECT_TYPE":"PAYLOAD","SEMIMAJOR_AXIS":"6925.363","DECAY_DATE":null,"ARG_OF_PERICENTER":"74.1261","REF_FRAME":"TEME","LAUNCH_DATE":"2021-04-29","MEAN_MOTION_DDOT":"0.0000000000000","MEAN_MOTION":"15.06395357","MEAN_ELEMENT_THEORY":"SGP4"},{"TIME_SYSTEM":"UTC","OBJECT_NAME":"STARLINK-2538","ECCENTRICITY":"0.00020060","PERIAPSIS":"545.827","SEMIMAJOR_AXIS":"6925.351","OBJECT_TYPE":"PAYLOAD","DECAY_DATE":null,"GP_ID":"185551395","REV_AT_EPOCH":"2322","FILE":"3129258","SITE":"AFETR","RA_OF_ASC_NODE":"187.3781","APOAPSIS":"548.605","MEAN_MOTION_DOT":"-0.00000086","ELEMENT_SET_NO":"999","TLE_LINE1":"1 48300U 21036AA  21269.49644540 -.00000086  00000-0  13169-4 0  9992","NORAD_CAT_ID":"48300","EPOCH":"2021-09-26T11:54:52.882560","PERIOD":"95.592","TLE_LINE2":"2 48300  53.0611 187.3781 0002006  62.9509 297.1684 15.06399203 23221","EPHEMERIS_TYPE":"0","CLASSIFICATION_TYPE":"U","INCLINATION":"53.0611","RCS_SIZE":"LARGE","CENTER_NAME":"EARTH","COUNTRY_CODE":"US","MEAN_ANOMALY":"297.1684","BSTAR":"0.00001316900000","OBJECT_ID":"2021-036AA","MEAN_MOTION_DDOT":"0.0000000000000","MEAN_MOTION":"15.06399203","MEAN_ELEMENT_THEORY":"SGP4","REF_FRAME":"TEME","LAUNCH_DATE":"2021-04-29","ARG_OF_PERICENTER":"62.9509"},{"OBJECT_ID":"2021-036AB","BSTAR":"0.00014890000000","COUNTRY_CODE":"US","MEAN_ANOMALY":"298.6020","CENTER_NAME":"EARTH","RCS_SIZE":"LARGE","INCLINATION":"53.0515","CLASSIFICATION_TYPE":"U","TLE_LINE2":"2 48301  53.0515 187.4093 0001742  61.5144 298.6020 15.06397001 23211","EPHEMERIS_TYPE":"0","PERIOD":"95.592","EPOCH":"2021-09-26T11:49:34.288608","NORAD_CAT_ID":"48301","TLE_LINE1":"1 48301U 21036AB  21269.49275797  .00001937  00000-0  14890-3 0  9993","ELEMENT_SET_NO":"999","MEAN_MOTION_DOT":"0.00001937","APOAPSIS":"548.429","RA_OF_ASC_NODE":"187.4093","FILE":"3129258","SITE":"AFETR","REV_AT_EPOCH":"2321","GP_ID":"185551647","DECAY_DATE":null,"SEMIMAJOR_AXIS":"6925.358","OBJECT_TYPE":"PAYLOAD","PERIAPSIS":"546.016","ECCENTRICITY":"0.00017420","OBJECT_NAME":"STARLINK-2537","TIME_SYSTEM":"UTC","ARG_OF_PERICENTER":"61.5144","LAUNCH_DATE":"2021-04-29","REF_FRAME":"TEME","MEAN_ELEMENT_THEORY":"SGP4","MEAN_MOTION":"15.06397001","MEAN_MOTION_DDOT":"0.0000000000000"},{"ARG_OF_PERICENTER":"65.2307","LAUNCH_DATE":"2021-04-29","REF_FRAME":"TEME","MEAN_MOTION":"15.06405647","MEAN_ELEMENT_THEORY":"SGP4","MEAN_MOTION_DDOT":"0.0000000000000","OBJECT_ID":"2021-036AC","BSTAR":"0.00010325000000","CENTER_NAME":"EARTH","RCS_SIZE":"LARGE","COUNTRY_CODE":"US","MEAN_ANOMALY":"294.8873","INCLINATION":"53.0542","PERIOD":"95.592","TLE_LINE2":"2 48302  53.0542 187.4167 0001839  65.2307 294.8873 15.06405647 23796","CLASSIFICATION_TYPE":"U","EPHEMERIS_TYPE":"0","NORAD_CAT_ID":"48302","EPOCH":"2021-09-26T11:44:16.624320","TLE_LINE1":"1 48302U 21036AC  21269.48908130  .00001257  00000-0  10325-3 0  9991","MEAN_MOTION_DOT":"0.00001257","ELEMENT_SET_NO":"999","RA_OF_ASC_NODE":"187.4167","APOAPSIS":"548.470","FILE":"3129333","SITE":"AFETR","GP_ID":"185554533","REV_AT_EPOCH":"2379","OBJECT_TYPE":"PAYLOAD","SEMIMAJOR_AXIS":"6925.331","DECAY_DATE":null,"PERIAPSIS":"545.923","ECCENTRICITY":"0.00018390","TIME_SYSTEM":"UTC","OBJECT_NAME":"STARLINK-2556"},{"ARG_OF_PERICENTER":"55.8458","REF_FRAME":"TEME","LAUNCH_DATE":"2021-04-29","MEAN_MOTION_DDOT":"0.0000000000000","MEAN_MOTION":"15.06391047","MEAN_ELEMENT_THEORY":"SGP4","INCLINATION":"53.0536","COUNTRY_CODE":"US","MEAN_ANOMALY":"304.2705","RCS_SIZE":"LARGE","CENTER_NAME":"EARTH","OBJECT_ID":"2021-036AD","BSTAR":"0.00008208400000","ELEMENT_SET_NO":"999","MEAN_MOTION_DOT":"0.00000941","TLE_LINE1":"1 48303U 21036AD  21269.48539283  .00000941  00000-0  82084-4 0  9992","EPOCH":"2021-09-26T11:38:57.940512","NORAD_CAT_ID":"48303","EPHEMERIS_TYPE":"0","TLE_LINE2":"2 48303  53.0536 187.4347 0001845  55.8458 304.2705 15.06391047 23214","CLASSIFICATION_TYPE":"U","PERIOD":"95.593","REV_AT_EPOCH":"2321","GP_ID":"185551145","FILE":"3129258","SITE":"AFETR","APOAPSIS":"548.519","RA_OF_ASC_NODE":"187.4347","TIME_SYSTEM":"UTC","OBJECT_NAME":"STARLINK-2530","ECCENTRICITY":"0.00018450","PERIAPSIS":"545.963","DECAY_DATE":null,"OBJECT_TYPE":"PAYLOAD","SEMIMAJOR_AXIS":"6925.376"},{"LAUNCH_DATE":"2021-04-29","REF_FRAME":"TEME","MEAN_MOTION_DDOT":"0.0000000000000","MEAN_ELEMENT_THEORY":"SGP4","MEAN_MOTION":"15.06406507","ARG_OF_PERICENTER":"57.7045","REV_AT_EPOCH":"2380","GP_ID":"185555025","APOAPSIS":"548.554","RA_OF_ASC_NODE":"187.4548","SITE":"AFETR","FILE":"3129333","ECCENTRICITY":"0.00019650","OBJECT_NAME":"STARLINK-2524","TIME_SYSTEM":"UTC","DECAY_DATE":null,"SEMIMAJOR_AXIS":"6925.329","OBJECT_TYPE":"PAYLOAD","PERIAPSIS":"545.833","INCLINATION":"53.0547","OBJECT_ID":"2021-036AE","BSTAR":"-0.00016579000000","COUNTRY_CODE":"US","MEAN_ANOMALY":"302.4134","RCS_SIZE":"LARGE","CENTER_NAME":"EARTH","TLE_LINE1":"1 48304U 21036AE  21269.48170481 -.00002751  00000-0 -16579-3 0  9992","ELEMENT_SET_NO":"999","MEAN_MOTION_DOT":"-0.00002751","EPHEMERIS_TYPE":"0","TLE_LINE2":"2 48304  53.0547 187.4548 0001965  57.7045 302.4134 15.06406507 23805","CLASSIFICATION_TYPE":"U","PERIOD":"95.592","EPOCH":"2021-09-26T11:33:39.295584","NORAD_CAT_ID":"48304"},{"RCS_SIZE":"LARGE","CENTER_NAME":"EARTH","COUNTRY_CODE":"US","MEAN_ANOMALY":"299.5758","OBJECT_ID":"2021-036AF","BSTAR":"0.00005584300000","INCLINATION":"53.0551","NORAD_CAT_ID":"48305","EPOCH":"2021-09-26T11:28:20.759520","PERIOD":"95.592","TLE_LINE2":"2 48305  53.0551 187.4657 0002161  60.5446 299.5758 15.06396911 23803","CLASSIFICATION_TYPE":"U","EPHEMERIS_TYPE":"0","MEAN_MOTION_DOT":"0.00000550","ELEMENT_SET_NO":"999","TLE_LINE1":"1 48305U 21036AF  21269.47801805  .00000550  00000-0  55843-4 0  9994","FILE":"3129337","SITE":"AFETR","RA_OF_ASC_NODE":"187.4657","APOAPSIS":"548.720","GP_ID":"185554596","REV_AT_EPOCH":"2380","PERIAPSIS":"545.726","OBJECT_TYPE":"PAYLOAD","SEMIMAJOR_AXIS":"6925.358","DECAY_DATE":null,"OBJECT_NAME":"STARLINK-2519","TIME_SYSTEM":"UTC","ECCENTRICITY":"0.00021610","ARG_OF_PERICENTER":"60.5446","REF_FRAME":"TEME","LAUNCH_DATE":"2021-04-29","MEAN_MOTION":"15.06396911","MEAN_ELEMENT_THEORY":"SGP4","MEAN_MOTION_DDOT":"0.0000000000000"},{"PERIAPSIS":"545.822","DECAY_DATE":null,"OBJECT_TYPE":"PAYLOAD","SEMIMAJOR_AXIS":"6925.358","OBJECT_NAME":"STARLINK-2523","TIME_SYSTEM":"UTC","ECCENTRICITY":"0.00020230","FILE":"3129337","SITE":"AFETR","APOAPSIS":"548.624","RA_OF_ASC_NODE":"187.4898","REV_AT_EPOCH":"2380","GP_ID":"185554585","EPOCH":"2021-09-26T11:23:02.315040","NORAD_CAT_ID":"48306","TLE_LINE2":"2 48306  53.0560 187.4898 0002023  65.8683 294.2517 15.06397058 23807","CLASSIFICATION_TYPE":"U","EPHEMERIS_TYPE":"0","PERIOD":"95.592","ELEMENT_SET_NO":"999","MEAN_MOTION_DOT":"-0.00001553","TLE_LINE1":"1 48306U 21036AG  21269.47433235 -.00001553  00000-0 -85353-4 0  9998","MEAN_ANOMALY":"294.2517","COUNTRY_CODE":"US","RCS_SIZE":"LARGE","CENTER_NAME":"EARTH","BSTAR":"-0.00008535300000","OBJECT_ID":"2021-036AG","INCLINATION":"53.0560","MEAN_ELEMENT_THEORY":"SGP4","MEAN_MOTION":"15.06397058","MEAN_MOTION_DDOT":"0.0000000000000","REF_FRAME":"TEME","LAUNCH_DATE":"2021-04-29","ARG_OF_PERICENTER":"65.8683"}];
